GLOBALSTAR M023         
1 25621U 99004A   25280.16757694 -.00000091  00000+0  71681-4 0  9997
2 25621  52.0103  72.4546 0010202  18.8731 152.5348 12.62507958229871
GLOBALSTAR M040         
1 25622U 99004B   25280.18624913 -.00000093  00000+0  57352-4 0  9998
2 25622  51.9912  76.7181 0000047 104.9747  65.8016 12.62018949229392
GLOBALSTAR M036         
1 25623U 99004C   25280.31730316 -.00000042  00000+0  59868-3 0  9996
2 25623  51.9976 304.7701 0010570 265.0048 107.5904 11.86610685192298
GLOBALSTAR M038         
1 25624U 99004D   25280.11093075 -.00000064  00000+0  25710-3 0  9992
2 25624  51.9951 109.2415 0000944 308.4194 210.4719 12.32533340216176
GLOBALSTAR M022         
1 25649U 99012A   25280.28227220 -.00000079  00000+0  95640-4 0  9993
2 25649  52.0070 346.1759 0002704  44.4199 347.8279 12.02503457189862
GLOBALSTAR M041         
1 25650U 99012B   25280.22731696 -.00000106  00000+0 -26958-3 0  9993
2 25650  52.0009 231.1913 0001140 162.5505 197.5370 11.96682627191692
GLOBALSTAR M046         
1 25651U 99012C   25280.33982060 -.00000040  00000+0  53357-3 0  9998
2 25651  52.0051 292.0603 0002155 114.7148 345.4401 12.09412251197235
GLOBALSTAR M037         
1 25652U 99012D   25280.30334574 -.00000079  00000+0  13557-3 0  9997
2 25652  51.9994 202.6213 0002702  70.9318  72.0805 12.62451968225436
